[{"OBJECT_NAME":"STARLINK-36466","OBJECT_ID":"2026-003AA","EPOCH":"2026-03-09T11:18:12.521664","MEAN_MOTION":15.27560079,"ECCENTRICITY":0.00013387,"INCLINATION":43.0005,"RA_OF_ASC_NODE":228.0147,"ARG_OF_PERICENTER":282.9558,"MEAN_ANOMALY":77.1145,"EPHEMERIS_TYPE":0,"CLASSIFICATION_TYPE":"U","NORAD_CAT_ID":67358,"ELEMENT_SET_NO":999,"REV_AT_EPOCH":879,"BSTAR":0.00096967921,"MEAN_MOTION_DOT":0.00026501,"MEAN_MOTION_DDOT":0},{"OBJECT_NAME":"CZ-6A DEB","OBJECT_ID":"2024-140PU","EPOCH":"2026-03-09T02:24:11.901600","MEAN_MOTION":14.96529453,"ECCENTRICITY":0.01989751,"INCLINATION":89.1479,"RA_OF_ASC_NODE":289.7131,"ARG_OF_PERICENTER":96.8489,"MEAN_ANOMALY":265.5425,"EPHEMERIS_TYPE":0,"CLASSIFICATION_TYPE":"U","NORAD_CAT_ID":61126,"ELEMENT_SET_NO":999,"REV_AT_EPOCH":8404,"BSTAR":0.00070354239,"MEAN_MOTION_DOT":0.00012037,"MEAN_MOTION_DDOT":0}]
